NORAD_CAT_ID,OBJECT_NAME,OBJECT_TYPE,EPOCH,MEAN_MOTION,ECCENTRICITY,INCLINATION,RA_OF_ASC_NODE,ARG_OF_PERICENTER,MEAN_ANOMALY,BSTAR,MEAN_MOTION_DOT,MEAN_MOTION_DDOT,TLE_LINE0,TLE_LINE1,TLE_LINE2,SEMIMAJOR_AXIS,PERIOD,APOGEE,PERIGEE,DECAYED
51857.0,STARLINK-3571,PAYLOAD,2024-07-30 22:45:25,15.08845615,0.0001441,53.2156,133.1178,93.3662,266.7495,0.00023107,3.392e-05,0.0,0 STARLINK-3571,1 51857U 22022F   24212.94820929  .00003392  00000-0  23107-3 0  9991,2 51857  53.2156 133.1178 0001441  93.3662 266.7495 15.08845615134441,6917.863,95.437,540.725,538.731,0.0
51857.0,STARLINK-3571,PAYLOAD,2024-07-31 01:56:11,15.08854911,0.0001426,53.2156,132.5234,93.0272,267.0883,0.00040786,6.212e-05,0.0,0 STARLINK-3571,1 51857U 22022F   24213.08068607  .00006212  00000-0  40786-3 0  9990,2 51857  53.2156 132.5234 0001426  93.0272 267.0883 15.08854911134460,6917.835,95.437,540.686,538.713,0.0
51857.0,STARLINK-3571,PAYLOAD,2024-07-31 11:28:29,15.08868067,0.0001428,53.2157,130.739,94.691,265.4245,0.00072121,0.00011217,0.0,0 STARLINK-3571,1 51857U 22022F   24213.47811865  .00011217  00000-0  72121-3 0  9994,2 51857  53.2157 130.7390 0001428  94.6910 265.4245 15.08868067134520,6917.795,95.436,540.647,538.672,0.0
51857.0,STARLINK-3571,PAYLOAD,2024-07-31 17:50:02,15.08828382,0.0001418,53.2154,129.5493,85.1372,274.9782,-0.00042434,-7.033e-05,0.0,0 STARLINK-3571,1 51857U 22022F   24213.74308787 -.00007033  00000-0 -42434-3 0  9995,2 51857  53.2154 129.5493 0001418  85.1372 274.9782 15.08828382134564,6917.916,95.438,540.762,538.8,0.0
51857.0,STARLINK-3571,PAYLOAD,2024-07-31 22:36:12,15.08835293,0.0001638,53.2154,128.6573,81.5422,278.5755,8.0953e-05,1e-05,0.0,0 STARLINK-3571,1 51857U 22022F   24213.94180810  .00001000  00000-0  80953-4 0  9997,2 51857  53.2154 128.6573 0001638  81.5422 278.5755 15.08835293134595,6917.895,95.438,540.893,538.627,0.0
51857.0,STARLINK-3571,PAYLOAD,2024-08-01 11:19:17,15.08852052,0.0001468,53.2155,126.2787,81.6794,278.4365,0.0018593,0.00029437,0.0,0 STARLINK-3571,1 51857U 22022F   24214.47172993  .00029437  00000-0  18593-2 0  9992,2 51857  53.2155 126.2787 0001468  81.6794 278.4365 15.08852052134678,6917.844,95.437,540.724,538.693,0.0
51857.0,STARLINK-3571,PAYLOAD,2024-08-01 22:26:59,15.08852823,0.0001472,53.2155,124.1978,88.8706,271.2454,0.0015745,0.00024868,0.0,0 STARLINK-3571,1 51857U 22022F   24214.93541038  .00024868  00000-0  15745-2 0  9992,2 51857  53.2155 124.1978 0001472  88.8706 271.2454 15.08852823134748,6917.841,95.437,540.725,538.688,0.0
51857.0,STARLINK-3571,PAYLOAD,2024-08-02 01:37:45,15.08859582,0.0001354,53.2154,123.6026,89.0097,271.105,0.0020226,0.00032066,0.0,0 STARLINK-3571,1 51857U 22022F   24215.06788860  .00032066  00000-0  20226-2 0  9992,2 51857  53.2154 123.6026 0001354  89.0097 271.1050 15.08859582134762,6917.821,95.436,540.622,538.749,0.0
51857.0,STARLINK-3571,PAYLOAD,2024-08-02 11:10:03,15.08868277,0.0001441,53.2154,121.8187,90.1318,269.984,0.0013616,0.00021465,0.0,0 STARLINK-3571,1 51857U 22022F   24215.46532388  .00021465  00000-0  13616-2 0  9994,2 51857  53.2154 121.8187 0001441  90.1318 269.9840 15.08868277134826,6917.794,95.436,540.656,538.662,0.0
51857.0,STARLINK-3571,PAYLOAD,2024-08-02 20:42:23,15.08821996,0.0001671,53.2158,120.0342,120.9291,239.1866,0.0010915,0.00017117,0.0,0 STARLINK-3571,1 51857U 22022F   24215.86277224  .00017117  00000-0  10915-2 0  9991,2 51857  53.2158 120.0342 0001671 120.9291 239.1866 15.08821996134881,6917.935,95.439,540.956,538.644,0.0
51857.0,STARLINK-3571,PAYLOAD,2024-08-02 22:17:46,15.08826303,0.0001443,53.2155,119.7374,108.1178,251.9972,0.0011331,0.00017785,0.0,0 STARLINK-3571,1 51857U 22022F   24215.92901321  .00017785  00000-0  11331-2 0  9994,2 51857  53.2155 119.7374 0001443 108.1178 251.9972 15.08826303134895,6917.922,95.438,540.786,538.789,0.0
51857.0,STARLINK-3571,PAYLOAD,2024-08-03 11:00:51,15.08845563,0.0001523,53.2162,117.3545,116.2496,243.8653,0.0017325,0.00027397,0.0,0 STARLINK-3571,1 51857U 22022F   24216.45893513  .00027397  00000-0  17325-2 0  9995,2 51857  53.2162 117.3545 0001523 116.2496 243.8653 15.08845563134973,6917.863,95.437,540.782,538.675,0.0
51857.0,STARLINK-3571,PAYLOAD,2024-08-03 17:22:24,15.088303,0.0001633,53.2157,116.1701,96.0216,264.0962,0.001382,0.00021769,0.0,0 STARLINK-3571,1 51857U 22022F   24216.72389943  .00021769  00000-0  13820-2 0  9995,2 51857  53.2157 116.1701 0001633  96.0216 264.0962 15.08830300135012,6917.91,95.438,540.905,538.645,0.0
51857.0,STARLINK-3571,PAYLOAD,2024-08-03 22:08:34,15.08843543,0.000217,53.216,115.2727,113.6043,246.5177,0.00098287,0.00015391,0.0,0 STARLINK-3571,1 51857U 22022F   24216.92261844  .00015391  00000-0  98287-3 0  9991,2 51857  53.2160 115.2727 0002170 113.6043 246.5177 15.08843543135044,6917.87,95.437,541.236,538.233,0.0
51857.0,STARLINK-3571,PAYLOAD,2024-08-04 10:51:39,15.08858195,0.0001512,53.2162,112.8954,111.9287,248.1866,0.0012252,0.00019275,0.0,0 STARLINK-3571,1 51857U 22022F   24217.45253484  .00019275  00000-0  12252-2 0  9993,2 51857  53.2162 112.8954 0001512 111.9287 248.1866 15.08858195135122,6917.825,95.436,540.736,538.644,0.0
51857.0,STARLINK-3571,PAYLOAD,2024-08-04 20:23:57,15.08870614,0.0001307,53.2175,111.1107,110.5642,249.5491,0.0025586,0.00040702,0.0,0 STARLINK-3571,1 51857U 22022F   24217.84997344  .00040702  00000-0  25586-2 0  9999,2 51857  53.2175 111.1107 0001307 110.5642 249.5491 15.08870614135185,6917.787,95.436,540.556,538.748,0.0
51857.0,STARLINK-3571,PAYLOAD,2024-08-04 23:34:43,15.08889192,0.0001311,53.2168,110.5185,92.3507,267.7636,0.0034678,0.00055411,0.0,0 STARLINK-3571,1 51857U 22022F   24217.98245076  .00055411  00000-0  34678-2 0  9997,2 51857  53.2168 110.5185 0001311  92.3507 267.7636 15.08889192135205,6917.73,95.434,540.502,538.688,0.0
51857.0,STARLINK-3571,PAYLOAD,2024-08-05 21:50:08,15.08835291,0.0001519,53.2171,106.3559,129.1337,230.979,0.00067405,0.00010454,0.0,0 STARLINK-3571,1 51857U 22022F   24218.90981891  .00010454  00000-0  67405-3 0  9995,2 51857  53.2171 106.3559 0001519 129.1337 230.9790 15.08835291135346,6917.895,95.438,540.811,538.709,0.0
51857.0,STARLINK-3571,PAYLOAD,2024-08-05 23:25:31,15.08816118,0.000131,53.217,106.0562,68.8148,291.2984,-0.00031554,-5.303e-05,0.0,0 STARLINK-3571,1 51857U 22022F   24218.97606175 -.00005303  00000-0 -31554-3 0  9996,2 51857  53.2170 106.0562 0001310  68.8148 291.2984 15.08816118135357,6917.953,95.439,540.725,538.912,0.0
51857.0,STARLINK-3571,PAYLOAD,2024-08-06 08:57:51,15.08820742,0.0001311,53.2167,104.2718,62.2184,297.8941,0.00060352,9.325e-05,0.0,0 STARLINK-3571,1 51857U 22022F   24219.37350926  .00009325  00000-0  60352-3 0  9995,2 51857  53.2167 104.2718 0001311  62.2184 297.8941 15.08820742135415,6917.939,95.439,540.711,538.897,0.0
51857.0,STARLINK-3571,PAYLOAD,2024-08-06 20:05:33,15.08850197,0.0001269,53.2162,102.1928,66.0162,294.0963,0.0017183,0.00027172,0.0,0 STARLINK-3571,1 51857U 22022F   24219.83719107  .00027172  00000-0  17183-2 0  9999,2 51857  53.2162 102.1928 0001269  66.0162 294.0963 15.08850197135487,6917.849,95.437,540.592,538.836,0.0
51857.0,STARLINK-3571,PAYLOAD,2024-08-06 21:40:56,15.08856632,0.0001302,53.2163,101.8952,66.996,293.1169,0.0019062,0.00030193,0.0,0 STARLINK-3571,1 51857U 22022F   24219.90343024  .00030193  00000-0  19062-2 0  9993,2 51857  53.2163 101.8952 0001302  66.9960 293.1169 15.08856632135493,6917.83,95.437,540.595,538.794,0.0
51857.0,STARLINK-3571,PAYLOAD,2024-08-06 23:16:19,15.0886183,0.0001304,53.2164,101.5983,68.1572,291.9559,0.001975,0.00031303,0.0,0 STARLINK-3571,1 51857U 22022F   24219.96966928  .00031303  00000-0  19750-2 0  9991,2 51857  53.2164 101.5983 0001304  68.1572 291.9559 15.08861830135507,6917.814,95.436,540.581,538.777,0.0
51857.0,STARLINK-3571,PAYLOAD,2024-08-07 19:56:19,15.08870448,0.0001525,53.2157,97.7315,112.1575,247.958,0.0013238,0.00020861,0.0,0 STARLINK-3571,1 51857U 22022F   24220.83078043  .00020861  00000-0  13238-2 0  9993,2 51857  53.2157  97.7315 0001525 112.1575 247.9580 15.08870448135636,6917.787,95.436,540.707,538.597,0.0
51857.0,STARLINK-3571,PAYLOAD,2024-08-08 00:42:28,15.08857727,0.000129,53.2155,96.8408,68.1145,291.9985,0.00075055,0.00011683,0.0,0 STARLINK-3571,1 51857U 22022F   24221.02950122  .00011683  00000-0  75055-3 0  9990,2 51857  53.2155  96.8408 0001290  68.1145 291.9985 15.08857727135665,6917.826,95.436,540.584,538.799,0.0
51857.0,STARLINK-3571,PAYLOAD,2024-08-08 21:22:29,15.08841306,0.0001262,53.2159,92.974,91.1431,268.9705,0.00010026,1.308e-05,0.0,0 STARLINK-3571,1 51857U 22022F   24221.89062405  .00001308  00000-0  10026-3 0  9993,2 51857  53.2159  92.9740 0001262  91.1431 268.9705 15.08841306135792,6917.876,95.437,540.614,538.868,0.0
51857.0,STARLINK-3571,PAYLOAD,2024-08-09 08:30:11,15.08854936,0.0001285,53.2156,90.8977,81.6546,278.4591,0.00070688,0.00010984,0.0,0 STARLINK-3571,1 51857U 22022F   24222.35430048  .00010984  00000-0  70688-3 0  9997,2 51857  53.2156  90.8977 0001285  81.6546 278.4591 15.08854936135864,6917.835,95.437,540.589,538.811,0.0
51857.0,STARLINK-3571,PAYLOAD,2024-08-09 14:51:44,15.08832292,0.0001371,53.2157,89.7023,89.0927,271.0222,-6.0759e-05,-1.255e-05,0.0,0 STARLINK-3571,1 51857U 22022F   24222.61926372 -.00001255  00000-0 -60759-4 0  9998,2 51857  53.2157  89.7023 0001371  89.0927 271.0222 15.08832292135901,6917.904,95.438,540.717,538.821,0.0
51857.0,STARLINK-3571,PAYLOAD,2024-08-09 19:37:53,15.08831777,0.0001118,53.2156,88.8109,92.8652,267.2468,4.1396e-05,3.71e-06,0.0,0 STARLINK-3571,1 51857U 22022F   24222.81798461  .00000371  00000-0  41396-4 0  9998,2 51857  53.2156  88.8109 0001118  92.8652 267.2468 15.08831777135930,6917.906,95.438,540.544,538.997,0.0
51857.0,STARLINK-3571,PAYLOAD,2024-08-09 21:13:17,15.08833625,0.0001228,53.2156,88.5133,87.5114,272.6019,0.00013849,1.917e-05,0.0,0 STARLINK-3571,1 51857U 22022F   24222.88422575  .00001917  00000-0  13849-3 0  9993,2 51857  53.2156  88.5133 0001228  87.5114 272.6019 15.08833625135947,6917.9,95.438,540.614,538.915,0.0
